[{"OBJECT_NAME":"MESON-1","OBJECT_ID":"2024-043AK","EPOCH":"2026-03-09T21:36:16.481664","MEAN_MOTION":15.29893494,"ECCENTRICITY":0.00095452,"INCLINATION":97.5469,"RA_OF_ASC_NODE":205.2839,"ARG_OF_PERICENTER":227.1432,"MEAN_ANOMALY":132.9007,"EPHEMERIS_TYPE":0,"CLASSIFICATION_TYPE":"U","NORAD_CAT_ID":59131,"ELEMENT_SET_NO":999,"REV_AT_EPOCH":11189,"BSTAR":0.0002974823,"MEAN_MOTION_DOT":8.544e-5,"MEAN_MOTION_DDOT":0},{"OBJECT_NAME":"STARLINK-35399","OBJECT_ID":"2025-232AA","EPOCH":"2026-03-09T12:05:37.811040","MEAN_MOTION":15.30208536,"ECCENTRICITY":0.00013308,"INCLINATION":53.159,"RA_OF_ASC_NODE":105.0077,"ARG_OF_PERICENTER":72.2005,"MEAN_ANOMALY":287.9141,"EPHEMERIS_TYPE":0,"CLASSIFICATION_TYPE":"U","NORAD_CAT_ID":66029,"ELEMENT_SET_NO":999,"REV_AT_EPOCH":2340,"BSTAR":0.00070610345,"MEAN_MOTION_DOT":0.00020617,"MEAN_MOTION_DDOT":0}]
